IRIDIUM 116             
1 43072U 17083C   23252.43192663  .00000353  00000+0  11903-3 0  9990
2 43072  86.4000  24.8437 0001990  97.3327 262.8095 14.34221580299152
IRIDIUM 130             
1 43073U 17083D   23252.60952648  .00000687  00000+0  23831-3 0  9990
2 43073  86.4006  24.9464 0002193  94.9487 265.1959 14.34215249299123
IRIDIUM 151             
1 43074U 17083E   23252.44462166  .00000309  00000+0  10345-3 0  9991
2 43074  86.4002  24.8732 0002030  98.4579 261.6847 14.34218501299129
IRIDIUM 134             
1 43075U 17083F   23252.41290890  .00000389  00000+0  13172-3 0  9991
2 43075  86.4001  24.8806 0002171  91.0420 269.1024 14.34217371299080
IRIDIUM 137             
1 43076U 17083G   23252.42558937  .00000780  00000+0  27133-3 0  9999
2 43076  86.4005  24.9488 0001870  97.0011 263.1397 14.34215346299154
IRIDIUM 141             
1 43077U 17083H   23252.41925335  .00000389  00000+0  13171-3 0  9991
2 43077  86.3998  24.8384 0002300  97.1594 262.9863 14.34218422299158
IRIDIUM 153             
1 43078U 17083J   23252.58073602  .00000498  00000+0  17078-3 0  9992
2 43078  86.4030 353.2451 0002529  95.0331 265.1154 14.34215530300282
IRIDIUM 131             
1 43079U 17083K   23252.47633262  .00000395  00000+0  13383-3 0  9996
2 43079  86.4004  24.9328 0002226  94.8503 265.2947 14.34214392299093
